start=new Date('2022-02-14T00:00:00.000Z').valueOf();
sats=[{"MEAN_MOTION_DDOT":"0.0000000000000","MEAN_ANOMALY":"294.6549","MEAN_MOTION_DOT":"-0.00002394","OBJECT_TYPE":"PAYLOAD","APOAPSIS":"548.460","OBJECT_NAME":"STARLINK-1393","REV_AT_EPOCH":"9500","PERIAPSIS":"545.954","REF_FRAME":"TEME","TLE_LINE2":"2 45678  53.0523 243.7505 0001809  65.4629 294.6549 15.06402091 95007","ARG_OF_PERICENTER":"65.4629","EPHEMERIS_TYPE":"0","BSTAR":"-0.00014186000000","EPOCH":"2022-02-13T12:43:42.370464","GP_ID":"195892807","ECCENTRICITY":"0.00018090","TIME_SYSTEM":"UTC","CLASSIFICATION_TYPE":"U","INCLINATION":"53.0523","SEMIMAJOR_AXIS":"6925.342","ELEMENT_SET_NO":"999","RA_OF_ASC_NODE":"243.7505","DECAY_DATE":null,"PERIOD":"95.592","SITE":"AFETR","OBJECT_ID":"2020-035X","FILE":"3299685","COUNTRY_CODE":"US","MEAN_MOTION":"15.06402091","NORAD_CAT_ID":"45678","RCS_SIZE":"LARGE","LAUNCH_DATE":"2020-06-04","CENTER_NAME":"EARTH","MEAN_ELEMENT_THEORY":"SGP4","TLE_LINE1":"1 45678U 20035X   22044.53035151 -.00002394  00000-0 -14186-3 0  9998"},{"CLASSIFICATION_TYPE":"U","TIME_SYSTEM":"UTC","ECCENTRICITY":"0.00014060","GP_ID":"195891069","EPOCH":"2022-02-13T06:26:51.785952","BSTAR":"-0.00007676200000","DECAY_DATE":null,"ELEMENT_SET_NO":"999","SEMIMAJOR_AXIS":"6925.386","RA_OF_ASC_NODE":"244.9408","INCLINATION":"53.0536","NORAD_CAT_ID":"45679","COUNTRY_CODE":"US","MEAN_MOTION":"15.06387924","FILE":"3299685","OBJECT_ID":"2020-035Y","SITE":"AFETR","PERIOD":"95.593","TLE_LINE1":"1 45679U 20035Y   22044.26865493 -.00001424  00000-0 -76762-4 0  9991","MEAN_ELEMENT_THEORY":"SGP4","CENTER_NAME":"EARTH","LAUNCH_DATE":"2020-06-04","RCS_SIZE":"LARGE","OBJECT_TYPE":"PAYLOAD","MEAN_ANOMALY":"277.8637","MEAN_MOTION_DDOT":"0.0000000000000","MEAN_MOTION_DOT":"-0.00001424","OBJECT_NAME":"STARLINK-1394","APOAPSIS":"548.224","PERIAPSIS":"546.277","REV_AT_EPOCH":"9498","EPHEMERIS_TYPE":"0","ARG_OF_PERICENTER":"82.2512","TLE_LINE2":"2 45679  53.0536 244.9408 0001406  82.2512 277.8637 15.06387924 94982","REF_FRAME":"TEME"},{"REV_AT_EPOCH":"9501","PERIAPSIS":"546.135","EPHEMERIS_TYPE":"0","ARG_OF_PERICENTER":"67.0488","TLE_LINE2":"2 45680  53.0528 243.7153 0001559  67.0488 293.0665 15.06399577 95014","REF_FRAME":"TEME","OBJECT_TYPE":"PAYLOAD","MEAN_MOTION_DDOT":"0.0000000000000","MEAN_MOTION_DOT":"-0.00001736","MEAN_ANOMALY":"293.0665","OBJECT_NAME":"STARLINK-1395","APOAPSIS":"548.295","MEAN_MOTION":"15.06399577","COUNTRY_CODE":"US","NORAD_CAT_ID":"45680","FILE":"3299685","OBJECT_ID":"2020-035Z","SITE":"AFETR","PERIOD":"95.592","TLE_LINE1":"1 45680U 20035Z   22044.54140169 -.00001736  00000-0 -97698-4 0  9997","MEAN_ELEMENT_THEORY":"SGP4","CENTER_NAME":"EARTH","LAUNCH_DATE":"2020-06-04","RCS_SIZE":"LARGE","CLASSIFICATION_TYPE":"U","TIME_SYSTEM":"UTC","ECCENTRICITY":"0.00015590","GP_ID":"195891319","EPOCH":"2022-02-13T12:59:37.106016","BSTAR":"-0.00009769800000","DECAY_DATE":null,"ELEMENT_SET_NO":"999","SEMIMAJOR_AXIS":"6925.350","RA_OF_ASC_NODE":"243.7153","INCLINATION":"53.0528"},{"EPHEMERIS_TYPE":"0","ARG_OF_PERICENTER":"66.7078","TLE_LINE2":"2 45681  53.0539 243.7138 0001485  66.7078 293.4067 15.06402258 95021","REF_FRAME":"TEME","PERIAPSIS":"546.178","REV_AT_EPOCH":"9502","OBJECT_NAME":"STARLINK-1396","APOAPSIS":"548.235","OBJECT_TYPE":"PAYLOAD","MEAN_MOTION_DDOT":"0.0000000000000","MEAN_ANOMALY":"293.4067","MEAN_MOTION_DOT":"-0.00002056","MEAN_ELEMENT_THEORY":"SGP4","TLE_LINE1":"1 45681U 20035AA  22044.53771396 -.00002056  00000-0 -11918-3 0  9995","CENTER_NAME":"EARTH","LAUNCH_DATE":"2020-06-04","RCS_SIZE":"LARGE","NORAD_CAT_ID":"45681","COUNTRY_CODE":"US","MEAN_MOTION":"15.06402258","FILE":"3299685","OBJECT_ID":"2020-035AA","SITE":"AFETR","PERIOD":"95.592","DECAY_DATE":null,"SEMIMAJOR_AXIS":"6925.342","RA_OF_ASC_NODE":"243.7138","ELEMENT_SET_NO":"999","INCLINATION":"53.0539","CLASSIFICATION_TYPE":"U","TIME_SYSTEM":"UTC","GP_ID":"195892557","ECCENTRICITY":"0.00014850","EPOCH":"2022-02-13T12:54:18.486144","BSTAR":"-0.00011918000000"},{"REV_AT_EPOCH":"9501","PERIAPSIS":"546.088","REF_FRAME":"TEME","TLE_LINE2":"2 45682  53.0527 243.6869 0001609  55.8641 304.2500 15.06403531 95019","ARG_OF_PERICENTER":"55.8641","EPHEMERIS_TYPE":"0","MEAN_MOTION_DDOT":"0.0000000000000","MEAN_MOTION_DOT":"-0.00001410","MEAN_ANOMALY":"304.2500","OBJECT_TYPE":"PAYLOAD","APOAPSIS":"548.317","OBJECT_NAME":"STARLINK-1397","PERIOD":"95.592","SITE":"AFETR","OBJECT_ID":"2020-035AB","FILE":"3299685","NORAD_CAT_ID":"45682","COUNTRY_CODE":"US","MEAN_MOTION":"15.06403531","RCS_SIZE":"LARGE","LAUNCH_DATE":"2020-06-04","CENTER_NAME":"EARTH","TLE_LINE1":"1 45682U 20035AB  22044.54509069 -.00001410  00000-0 -75734-4 0  9993","MEAN_ELEMENT_THEORY":"SGP4","BSTAR":"-0.00007573400000","EPOCH":"2022-02-13T13:04:55.835616","GP_ID":"195892308","ECCENTRICITY":"0.00016090","TIME_SYSTEM":"UTC","CLASSIFICATION_TYPE":"U","INCLINATION":"53.0527","SEMIMAJOR_AXIS":"6925.338","RA_OF_ASC_NODE":"243.6869","ELEMENT_SET_NO":"999","DECAY_DATE":null},{"FILE":"3299802","NORAD_CAT_ID":"45683","COUNTRY_CODE":"US","MEAN_MOTION":"15.06389451","PERIOD":"95.593","OBJECT_ID":"2020-035AC","SITE":"AFETR","CENTER_NAME":"EARTH","LAUNCH_DATE":"2020-06-04","MEAN_ELEMENT_THEORY":"SGP4","TLE_LINE1":"1 45683U 20035AC  22044.79206054 -.00001244  00000-0 -64611-4 0  9996","RCS_SIZE":"LARGE","CLASSIFICATION_TYPE":"U","TIME_SYSTEM":"UTC","EPOCH":"2022-02-13T19:00:34.030656","BSTAR":"-0.00006461100000","ECCENTRICITY":"0.00016540","GP_ID":"195899829","DECAY_DATE":null,"INCLINATION":"53.0543","RA_OF_ASC_NODE":"242.5926","SEMIMAJOR_AXIS":"6925.381","ELEMENT_SET_NO":"999","PERIAPSIS":"546.100","REV_AT_EPOCH":"9465","TLE_LINE2":"2 45683  53.0543 242.5926 0001654  64.5986 295.5174 15.06389451 94651","EPHEMERIS_TYPE":"0","ARG_OF_PERICENTER":"64.5986","REF_FRAME":"TEME","OBJECT_TYPE":"PAYLOAD","MEAN_MOTION_DDOT":"0.0000000000000","MEAN_MOTION_DOT":"-0.00001244","MEAN_ANOMALY":"295.5174","OBJECT_NAME":"STARLINK-1399","APOAPSIS":"548.391"},{"OBJECT_NAME":"STARLINK-1401","APOAPSIS":"548.354","OBJECT_TYPE":"PAYLOAD","MEAN_MOTION_DDOT":"0.0000000000000","MEAN_MOTION_DOT":"-0.00001922","MEAN_ANOMALY":"289.1203","EPHEMERIS_TYPE":"0","ARG_OF_PERICENTER":"70.9958","TLE_LINE2":"2 45684  53.0534 242.3843 0001590  70.9958 289.1203 15.06387267 94663","REF_FRAME":"TEME","REV_AT_EPOCH":"9466","PERIAPSIS":"546.151","DECAY_DATE":null,"ELEMENT_SET_NO":"999","SEMIMAJOR_AXIS":"6925.388","RA_OF_ASC_NODE":"242.3843","INCLINATION":"53.0534","CLASSIFICATION_TYPE":"U","TIME_SYSTEM":"UTC","ECCENTRICITY":"0.00015900","GP_ID":"195899821","EPOCH":"2022-02-13T20:04:15.721248","BSTAR":"-0.00011018000000","MEAN_ELEMENT_THEORY":"SGP4","TLE_LINE1":"1 45684U 20035AD  22044.83629307 -.00001922  00000-0 -11018-3 0  9997","CENTER_NAME":"EARTH","LAUNCH_DATE":"2020-06-04","RCS_SIZE":"LARGE","NORAD_CAT_ID":"45684","COUNTRY_CODE":"US","MEAN_MOTION":"15.06387267","FILE":"3299802","OBJECT_ID":"2020-035AD","SITE":"AFETR","PERIOD":"95.593"},{"OBJECT_TYPE":"PAYLOAD","MEAN_ANOMALY":"295.1008","MEAN_MOTION_DDOT":"0.0000000000000","MEAN_MOTION_DOT":"-0.00002621","OBJECT_NAME":"STARLINK-1402","APOAPSIS":"548.460","REV_AT_EPOCH":"9502","PERIAPSIS":"545.969","EPHEMERIS_TYPE":"0","ARG_OF_PERICENTER":"65.0168","TLE_LINE2":"2 45685  53.0532 243.9049 0001798  65.0168 295.1008 15.06399681 95029","REF_FRAME":"TEME","CLASSIFICATION_TYPE":"U","TIME_SYSTEM":"UTC","GP_ID":"195892058","ECCENTRICITY":"0.00017980","EPOCH":"2022-02-13T12:01:14.799936","BSTAR":"-0.00015713000000","DECAY_DATE":null,"SEMIMAJOR_AXIS":"6925.350","ELEMENT_SET_NO":"999","RA_OF_ASC_NODE":"243.9049","INCLINATION":"53.0532","COUNTRY_CODE":"US","NORAD_CAT_ID":"45685","MEAN_MOTION":"15.06399681","FILE":"3299685","OBJECT_ID":"2020-035AE","SITE":"AFETR","PERIOD":"95.592","MEAN_ELEMENT_THEORY":"SGP4","TLE_LINE1":"1 45685U 20035AE  22044.50086574 -.00002621  00000-0 -15713-3 0  9998","CENTER_NAME":"EARTH","LAUNCH_DATE":"2020-06-04","RCS_SIZE":"LARGE"},{"OBJECT_ID":"2020-035AF","SITE":"AFETR","PERIOD":"95.593","COUNTRY_CODE":"US","MEAN_MOTION":"15.06389257","NORAD_CAT_ID":"45686","FILE":"3299685","RCS_SIZE":"LARGE","MEAN_ELEMENT_THEORY":"SGP4","TLE_LINE1":"1 45686U 20035AF  22044.02906627 -.00001311  00000-0 -69149-4 0  9994","CENTER_NAME":"EARTH","LAUNCH_DATE":"2020-06-04","GP_ID":"195892808","ECCENTRICITY":"0.00015850","EPOCH":"2022-02-13T00:41:51.325728","BSTAR":"-0.00006914900000","CLASSIFICATION_TYPE":"U","TIME_SYSTEM":"UTC","SEMIMAJOR_AXIS":"6925.381","RA_OF_ASC_NODE":"246.0080","ELEMENT_SET_NO":"999","INCLINATION":"53.0532","DECAY_DATE":null,"REV_AT_EPOCH":"9495","PERIAPSIS":"546.149","REF_FRAME":"TEME","EPHEMERIS_TYPE":"0","ARG_OF_PERICENTER":"60.0188","TLE_LINE2":"2 45686  53.0532 246.0080 0001585  60.0188 300.0958 15.06389257 94959","MEAN_MOTION_DOT":"-0.00001311","MEAN_MOTION_DDOT":"0.0000000000000","MEAN_ANOMALY":"300.0958","OBJECT_TYPE":"PAYLOAD","APOAPSIS":"548.344","OBJECT_NAME":"STARLINK-1404"},{"PERIOD":"90.521","OBJECT_ID":"2020-035AG","SITE":"AFETR","FILE":"3299842","COUNTRY_CODE":"US","NORAD_CAT_ID":"45687","MEAN_MOTION":"15.90798887","RCS_SIZE":"LARGE","CENTER_NAME":"EARTH","LAUNCH_DATE":"2020-06-04","MEAN_ELEMENT_THEORY":"SGP4","TLE_LINE1":"1 45687U 20035AG  22044.73522555  .00017139  11204-4  64526-4 0  9996","EPOCH":"2022-02-13T17:38:43.487520","BSTAR":"0.00006452600000","ECCENTRICITY":"0.00020250","GP_ID":"195900906","CLASSIFICATION_TYPE":"U","TIME_SYSTEM":"UTC","INCLINATION":"53.0111","ELEMENT_SET_NO":"999","SEMIMAJOR_AXIS":"6678.183","RA_OF_ASC_NODE":"208.6928","DECAY_DATE":null,"REV_AT_EPOCH":"9509","PERIAPSIS":"298.696","REF_FRAME":"TEME","TLE_LINE2":"2 45687  53.0111 208.6928 0002025  33.5023 326.6130 15.90798887 95099","EPHEMERIS_TYPE":"0","ARG_OF_PERICENTER":"33.5023","MEAN_MOTION_DDOT":"0.0000112040000","MEAN_ANOMALY":"326.6130","MEAN_MOTION_DOT":"0.00017139","OBJECT_TYPE":"PAYLOAD","APOAPSIS":"301.400","OBJECT_NAME":"STARLINK-1406"}];
